CCSDS_OMM_VERS = 2.0
CREATION_DATE  = 
ORIGINATOR     = 

OBJECT_NAME    = DELTA 2 R/B(1)
OBJECT_ID      = 1990-008B
CENTER_NAME    = EARTH
REF_FRAME      = TEME
TIME_SYSTEM    = UTC
MEAN_ELEMENT_THEORY = SGP/SGP4

EPOCH          = 2025-12-10T11:44:47.404320
MEAN_MOTION    = 15.44941499
ECCENTRICITY   = .0111567
INCLINATION    = 35.6071
RA_OF_ASC_NODE = 35.0632
ARG_OF_PERICENTER = 158.0511
MEAN_ANOMALY   = 202.5050

EPHEMERIS_TYPE = 0
CLASSIFICATION_TYPE = U
NORAD_CAT_ID   = 20453
ELEMENT_SET_NO = 999
REV_AT_EPOCH   = 91228
BSTAR          = .89165E-3
MEAN_MOTION_DOT = .55264E-3
MEAN_MOTION_DDOT = 0

CCSDS_OMM_VERS = 2.0
CREATION_DATE  = 
ORIGINATOR     = 

OBJECT_NAME    = COSMOS 2058
OBJECT_ID      = 1990-010A
CENTER_NAME    = EARTH
REF_FRAME      = TEME
TIME_SYSTEM    = UTC
MEAN_ELEMENT_THEORY = SGP/SGP4

EPOCH          = 2025-12-10T12:07:58.839168
MEAN_MOTION    = 15.10434430
ECCENTRICITY   = .0008246
INCLINATION    = 82.4658
RA_OF_ASC_NODE = 135.2279
ARG_OF_PERICENTER = 282.6120
MEAN_ANOMALY   = 77.4188

EPHEMERIS_TYPE = 0
CLASSIFICATION_TYPE = U
NORAD_CAT_ID   = 20465
ELEMENT_SET_NO = 999
REV_AT_EPOCH   = 92877
BSTAR          = .45474E-3
MEAN_MOTION_DOT = .7509E-4
MEAN_MOTION_DDOT = 0

CCSDS_OMM_VERS = 2.0
CREATION_DATE  = 
ORIGINATOR     = 

OBJECT_NAME    = SL-14 R/B
OBJECT_ID      = 1990-010B
CENTER_NAME    = EARTH
REF_FRAME      = TEME
TIME_SYSTEM    = UTC
MEAN_ELEMENT_THEORY = SGP/SGP4

EPOCH          = 2025-12-10T10:51:01.756224
MEAN_MOTION    = 14.83467962
ECCENTRICITY   = .0018574
INCLINATION    = 82.5019
RA_OF_ASC_NODE = 351.1957
ARG_OF_PERICENTER = 231.1684
MEAN_ANOMALY   = 128.7874

EPHEMERIS_TYPE = 0
CLASSIFICATION_TYPE = U
NORAD_CAT_ID   = 20466
ELEMENT_SET_NO = 999
REV_AT_EPOCH   = 91525
BSTAR          = .84491E-4
MEAN_MOTION_DOT = .719E-5
MEAN_MOTION_DDOT = 0

CCSDS_OMM_VERS = 2.0
CREATION_DATE  = 
ORIGINATOR     = 

OBJECT_NAME    = SL-14 R/B
OBJECT_ID      = 1990-018B
CENTER_NAME    = EARTH
REF_FRAME      = TEME
TIME_SYSTEM    = UTC
MEAN_ELEMENT_THEORY = SGP/SGP4

EPOCH          = 2025-12-10T09:13:09.876576
MEAN_MOTION    = 14.82042726
ECCENTRICITY   = .0017196
INCLINATION    = 82.5208
RA_OF_ASC_NODE = 306.5662
ARG_OF_PERICENTER = 30.7885
MEAN_ANOMALY   = 329.4334

EPHEMERIS_TYPE = 0
CLASSIFICATION_TYPE = U
NORAD_CAT_ID   = 20511
ELEMENT_SET_NO = 999
REV_AT_EPOCH   = 90935
BSTAR          = .10482E-3
MEAN_MOTION_DOT = .857E-5
MEAN_MOTION_DDOT = 0

CCSDS_OMM_VERS = 2.0
CREATION_DATE  = 
ORIGINATOR     = 

OBJECT_NAME    = HST
OBJECT_ID      = 1990-037B
CENTER_NAME    = EARTH
REF_FRAME      = TEME
TIME_SYSTEM    = UTC
MEAN_ELEMENT_THEORY = SGP/SGP4

EPOCH          = 2025-12-10T04:18:37.822752
MEAN_MOTION    = 15.27993349
ECCENTRICITY   = .00018361
INCLINATION    = 28.4692
RA_OF_ASC_NODE = 289.9149
ARG_OF_PERICENTER = 207.5620
MEAN_ANOMALY   = 152.4878

EPHEMERIS_TYPE = 0
CLASSIFICATION_TYPE = U
NORAD_CAT_ID   = 20580
ELEMENT_SET_NO = 999
REV_AT_EPOCH   = 75960
BSTAR          = .37347462E-3
MEAN_MOTION_DOT = .10729E-3
MEAN_MOTION_DDOT = 0

CCSDS_OMM_VERS = 2.0
CREATION_DATE  = 
ORIGINATOR     = 

OBJECT_NAME    = SL-16 R/B
OBJECT_ID      = 1990-046B
CENTER_NAME    = EARTH
REF_FRAME      = TEME
TIME_SYSTEM    = UTC
MEAN_ELEMENT_THEORY = SGP/SGP4

EPOCH          = 2025-12-10T11:36:36.230688
MEAN_MOTION    = 14.15001299
ECCENTRICITY   = .0011837
INCLINATION    = 70.9988
RA_OF_ASC_NODE = 125.2589
ARG_OF_PERICENTER = 77.4448
MEAN_ANOMALY   = 282.7997

EPHEMERIS_TYPE = 0
CLASSIFICATION_TYPE = U
NORAD_CAT_ID   = 20625
ELEMENT_SET_NO = 999
REV_AT_EPOCH   = 83577
BSTAR          = .35573E-4
MEAN_MOTION_DOT = .21E-6
MEAN_MOTION_DDOT = 0

CCSDS_OMM_VERS = 2.0
CREATION_DATE  = 
ORIGINATOR     = 

OBJECT_NAME    = COSMOS 2084
OBJECT_ID      = 1990-055A
CENTER_NAME    = EARTH
REF_FRAME      = TEME
TIME_SYSTEM    = UTC
MEAN_ELEMENT_THEORY = SGP/SGP4

EPOCH          = 2025-12-10T05:49:15.218400
MEAN_MOTION    = 15.04993653
ECCENTRICITY   = .0032144
INCLINATION    = 62.7910
RA_OF_ASC_NODE = 280.5019
ARG_OF_PERICENTER = 174.4033
MEAN_ANOMALY   = 185.7433

EPHEMERIS_TYPE = 0
CLASSIFICATION_TYPE = U
NORAD_CAT_ID   = 20663
ELEMENT_SET_NO = 999
REV_AT_EPOCH   = 92285
BSTAR          = .3484E-3
MEAN_MOTION_DOT = .4821E-4
MEAN_MOTION_DDOT = 0

CCSDS_OMM_VERS = 2.0
CREATION_DATE  = 
ORIGINATOR     = 

OBJECT_NAME    = SL-6 R/B(2)
OBJECT_ID      = 1990-055D
CENTER_NAME    = EARTH
REF_FRAME      = TEME
TIME_SYSTEM    = UTC
MEAN_ELEMENT_THEORY = SGP/SGP4

EPOCH          = 2025-12-10T12:07:43.045248
MEAN_MOTION    = 15.03059461
ECCENTRICITY   = .0012458
INCLINATION    = 62.7824
RA_OF_ASC_NODE = 197.0080
ARG_OF_PERICENTER = 307.2726
MEAN_ANOMALY   = 52.7236

EPHEMERIS_TYPE = 0
CLASSIFICATION_TYPE = U
NORAD_CAT_ID   = 20666
ELEMENT_SET_NO = 999
REV_AT_EPOCH   = 92478
BSTAR          = .22644E-3
MEAN_MOTION_DOT = .2874E-4
MEAN_MOTION_DDOT = 0

CCSDS_OMM_VERS = 2.0
CREATION_DATE  = 
ORIGINATOR     = 

OBJECT_NAME    = SL-8 R/B
OBJECT_ID      = 1990-078B
CENTER_NAME    = EARTH
REF_FRAME      = TEME
TIME_SYSTEM    = UTC
MEAN_ELEMENT_THEORY = SGP/SGP4

EPOCH          = 2025-12-10T12:12:45.801216
MEAN_MOTION    = 14.85795608
ECCENTRICITY   = .0372844
INCLINATION    = 82.9052
RA_OF_ASC_NODE = 331.3069
ARG_OF_PERICENTER = 313.4270
MEAN_ANOMALY   = 43.6462

EPHEMERIS_TYPE = 0
CLASSIFICATION_TYPE = U
NORAD_CAT_ID   = 20775
ELEMENT_SET_NO = 999
REV_AT_EPOCH   = 79604
BSTAR          = .9586E-3
MEAN_MOTION_DOT = .30976E-3
MEAN_MOTION_DDOT = 0

CCSDS_OMM_VERS = 2.0
CREATION_DATE  = 
ORIGINATOR     = 

OBJECT_NAME    = SL-8 R/B
OBJECT_ID      = 1991-006B
CENTER_NAME    = EARTH
REF_FRAME      = TEME
TIME_SYSTEM    = UTC
MEAN_ELEMENT_THEORY = SGP/SGP4

EPOCH          = 2025-12-10T10:46:38.130816
MEAN_MOTION    = 13.77489624
ECCENTRICITY   = .0021303
INCLINATION    = 82.9430
RA_OF_ASC_NODE = 236.4166
ARG_OF_PERICENTER = 286.6357
MEAN_ANOMALY   = 246.5984

EPHEMERIS_TYPE = 0
CLASSIFICATION_TYPE = U
NORAD_CAT_ID   = 21088
ELEMENT_SET_NO = 999
REV_AT_EPOCH   = 75178
BSTAR          = .71776E-4
MEAN_MOTION_DOT = .87E-6
MEAN_MOTION_DDOT = 0

CCSDS_OMM_VERS = 2.0
CREATION_DATE  = 
ORIGINATOR     = 

OBJECT_NAME    = OKEAN-3
OBJECT_ID      = 1991-039A
CENTER_NAME    = EARTH
REF_FRAME      = TEME
TIME_SYSTEM    = UTC
MEAN_ELEMENT_THEORY = SGP/SGP4

EPOCH          = 2025-12-10T11:40:59.835360
MEAN_MOTION    = 15.04092470
ECCENTRICITY   = .0012803
INCLINATION    = 82.5168
RA_OF_ASC_NODE = 63.2277
ARG_OF_PERICENTER = 274.8540
MEAN_ANOMALY   = 85.1224

EPHEMERIS_TYPE = 0
CLASSIFICATION_TYPE = U
NORAD_CAT_ID   = 21397
ELEMENT_SET_NO = 999
REV_AT_EPOCH   = 85162
BSTAR          = .3612E-3
MEAN_MOTION_DOT = .5036E-4
MEAN_MOTION_DDOT = 0

CCSDS_OMM_VERS = 2.0
CREATION_DATE  = 
ORIGINATOR     = 

OBJECT_NAME    = COSMOS 2151
OBJECT_ID      = 1991-042A
CENTER_NAME    = EARTH
REF_FRAME      = TEME
TIME_SYSTEM    = UTC
MEAN_ELEMENT_THEORY = SGP/SGP4

EPOCH          = 2025-12-10T11:42:51.515136
MEAN_MOTION    = 14.99673993
ECCENTRICITY   = .0012736
INCLINATION    = 82.4961
RA_OF_ASC_NODE = 169.6733
ARG_OF_PERICENTER = 7.2774
MEAN_ANOMALY   = 352.8632

EPHEMERIS_TYPE = 0
CLASSIFICATION_TYPE = U
NORAD_CAT_ID   = 21422
ELEMENT_SET_NO = 999
REV_AT_EPOCH   = 84982
BSTAR          = .20784E-3
MEAN_MOTION_DOT = .2592E-4
MEAN_MOTION_DDOT = 0

